[{"OBJECT_NAME":"STARLINK-32514","OBJECT_ID":"2024-210G","EPOCH":"2026-03-09T07:29:58.189920","MEAN_MOTION":15.27598956,"ECCENTRICITY":8.754e-5,"INCLINATION":42.9967,"RA_OF_ASC_NODE":174.914,"ARG_OF_PERICENTER":294.8592,"MEAN_ANOMALY":65.2168,"EPHEMERIS_TYPE":0,"CLASSIFICATION_TYPE":"U","NORAD_CAT_ID":61965,"ELEMENT_SET_NO":999,"REV_AT_EPOCH":7493,"BSTAR":0.0011939396,"MEAN_MOTION_DOT":0.00032758,"MEAN_MOTION_DDOT":0},{"OBJECT_NAME":"HERMES-2","OBJECT_ID":"2025-052AK","EPOCH":"2026-03-09T22:17:00.130272","MEAN_MOTION":15.28021069,"ECCENTRICITY":0.00063399,"INCLINATION":97.4004,"RA_OF_ASC_NODE":324.4926,"ARG_OF_PERICENTER":99.416,"MEAN_ANOMALY":260.7796,"EPHEMERIS_TYPE":0,"CLASSIFICATION_TYPE":"U","NORAD_CAT_ID":63243,"ELEMENT_SET_NO":999,"REV_AT_EPOCH":5485,"BSTAR":0.00034839454,"MEAN_MOTION_DOT":9.456e-5,"MEAN_MOTION_DDOT":0}]
